[{"OBJECT_NAME":"STARLINK-5872","OBJECT_ID":"2023-094Q","EPOCH":"2026-03-09T22:00:01.999584","MEAN_MOTION":15.11376105,"ECCENTRICITY":0.00015753,"INCLINATION":43.0004,"RA_OF_ASC_NODE":28.4509,"ARG_OF_PERICENTER":248.1924,"MEAN_ANOMALY":38.1454,"EPHEMERIS_TYPE":0,"CLASSIFICATION_TYPE":"U","NORAD_CAT_ID":57232,"ELEMENT_SET_NO":999,"REV_AT_EPOCH":537,"BSTAR":0.0043979338,"MEAN_MOTION_DOT":0.00076111,"MEAN_MOTION_DDOT":0},{"OBJECT_NAME":"OBJECT A","OBJECT_ID":"2024-095A","EPOCH":"2026-03-09T22:38:35.638656","MEAN_MOTION":15.12064324,"ECCENTRICITY":0.0003947,"INCLINATION":97.539,"RA_OF_ASC_NODE":149.317,"ARG_OF_PERICENTER":111.635,"MEAN_ANOMALY":248.5301,"EPHEMERIS_TYPE":0,"CLASSIFICATION_TYPE":"U","NORAD_CAT_ID":59810,"ELEMENT_SET_NO":999,"REV_AT_EPOCH":9915,"BSTAR":0.00038280559,"MEAN_MOTION_DOT":6.522e-5,"MEAN_MOTION_DDOT":0}]
